API VERSION: 1.2
API SOURCE: NASA/JPL Horizons API



*******************************************************************************
Ephemeris / API_USER Wed Apr 15 10:20:53 2026 Pasadena, USA      / Horizons
*******************************************************************************
Target body name: Venus (299)                     {source: DE441}
Center body name: Sun (10)                        {source: DE441}
Center-site name: BODY CENTER
*******************************************************************************
Start time      : A.D. 2100-Jan-01 00:00:00.0000 TDB
Stop  time      : A.D. 2199-Dec-18 00:00:00.0000 TDB
Step-size       : 43200 minutes
*******************************************************************************
Center geodetic : 0.0, 0.0, 0.0                   {E-lon(deg),Lat(deg),Alt(km)}
Center cylindric: 0.0, 0.0, 0.0                   {E-lon(deg),Dxy(km),Dz(km)}
Center radii    : 695700.0, 695700.0, 695700.0 km {Equator_a, b, pole_c}
Output units    : AU-D
Calendar mode   : Mixed Julian/Gregorian
Output type     : GEOMETRIC cartesian states
Output format   : 3 (position, velocity, LT, range, range-rate)
Reference frame : Ecliptic of J2000.0
*******************************************************************************
            JDTDB,            Calendar Date (TDB),                      X,                      Y,                      Z,                     VX,                     VY,                     VZ,                     LT,                     RG,                     RR,
**************************************************************************************************************************************************************************************************************************************************************************
$$SOE
2490769.500000000, A.D. 2107-May-25 00:00:00.0000,  6.610599039774380E-01,  2.951899608480946E-01, -3.397657550563185E-02, -8.311451512678430E-03,  1.838072232252327E-02,  7.357045342916760E-04,  4.185923076168385E-03,  7.247701134258013E-01, -1.290883206482663E-04,
2490799.500000000, A.D. 2107-Jun-24 00:00:00.0000,  2.208588255270580E-01,  6.861762275739596E-01, -3.146211155727299E-03, -1.931966580647959E-02,  6.101424273734606E-03,  1.198661022698228E-03,  4.163288847942845E-03,  7.208511182938252E-01, -1.165811457647494E-04,
2490829.500000000, A.D. 2107-Jul-24 00:00:00.0000, -3.663238122470444E-01,  6.174790859535496E-01,  2.973561314807484E-02, -1.746293423103903E-02, -1.043122678518777E-02,  8.607695961047827E-04,  4.150174162033329E-03,  7.185803808193840E-01, -2.557852806660952E-05,
2490859.500000000, A.D. 2107-Aug-23 00:00:00.0000, -7.060028205281593E-01,  1.319958329307096E-01,  4.253249107941438E-02, -3.821718701909910E-03, -1.997121989654369E-02, -5.864559112539468E-05,  4.155451907220876E-03,  7.194941940712299E-01,  8.274150832089376E-05,
2490889.500000000, A.D. 2107-Sep-22 00:00:00.0000, -5.707511794798207E-01, -4.429589133711889E-01,  2.670811992787826E-02,  1.225975600652495E-02, -1.607293954791748E-02, -9.310310312055374E-04,  4.175515346294143E-03,  7.229680708597530E-01,  1.348822326460815E-04,
2490919.500000000, A.D. 2107-Oct-22 00:00:00.0000, -5.570077418383659E-02, -7.244987441310521E-01, -6.907626529461241E-03,  2.003262143794256E-02, -1.626649357509508E-03, -1.177259517190790E-03,  4.196893652256488E-03,  7.266696097928005E-01,  9.743762743194320E-05,
2490949.500000000, A.D. 2107-Nov-21 00:00:00.0000,  4.965980549732744E-01, -5.313367212880409E-01, -3.604078377373376E-02,  1.464630024890701E-02,  1.373757394409806E-02, -6.522630832184031E-04,  4.205542244695576E-03,  7.281670671538157E-01, -3.358032945611582E-06,
2490979.500000000, A.D. 2107-Dec-21 00:00:00.0000,  7.252462896614149E-01,  8.075587922799143E-03, -4.168544014957069E-02, -3.093493486679717E-04,  2.013336047992463E-02,  2.989975654650636E-04,  4.195845785376549E-03,  7.264881772667819E-01, -1.021759087572646E-04,
2491009.500000000, A.D. 2108-Jan-20 00:00:00.0000,  4.783306179163854E-01,  5.414028235808281E-01, -2.000683941328272E-02, -1.521905682928009E-02,  1.330574083226910E-02,  1.062939820852044E-03,  4.174055728023025E-03,  7.227153457903556E-01, -1.345498856459857E-04,
2491039.500000000, A.D. 2108-Feb-19 00:00:00.0000, -8.584319723241240E-02,  7.140391479524669E-01,  1.491912305010615E-02, -2.014954476697796E-02, -2.523636434265054E-03,  1.126034868209924E-03,  4.154535278353093E-03,  7.193354847026191E-01, -7.711896898122337E-05,
2491069.500000000, A.D. 2108-Mar-20 00:00:00.0000, -5.916058859767788E-01,  4.060109710188889E-01,  3.976597394424116E-02, -1.152441337242540E-02, -1.677661141016663E-02,  4.298918438351588E-04,  4.150439395391860E-03,  7.186263045518194E-01,  3.272571880526818E-05,
2491099.500000000, A.D. 2108-Apr-19 00:00:00.0000, -6.981612404787989E-01, -1.763091356445075E-01,  3.777453820180503E-02,  4.820995063930250E-03, -1.970071928544175E-02, -5.529905852892186E-04,  4.164548997841517E-03,  7.210693064851452E-01,  1.202324517860268E-04,
2491129.500000000, A.D. 2108-May-19 00:00:00.0000, -3.374359905343982E-01, -6.416185578813354E-01,  1.048593837905568E-02,  1.776313171085868E-02, -9.504579678579319E-03, -1.156506128404376E-03,  4.187339917259046E-03,  7.250154318560015E-01,  1.272630991564964E-04,
2491159.500000000, A.D. 2108-Jun-18 00:00:00.0000,  2.466325934986155E-01, -6.843772451691125E-01, -2.377333825852538E-02,  1.889284979042832E-02,  6.789126240914648E-03, -9.940384205128180E-04,  4.203708633028950E-03,  7.278495871353304E-01,  5.069816730771041E-05,
2491189.500000000, A.D. 2108-Jul-18 00:00:00.0000,  6.701468005504152E-01, -2.804824909964994E-01, -4.254060082986498E-02,  7.697042609265981E-03,  1.857097022455480E-02, -1.842170616533659E-04,  4.202962050785936E-03,  7.277203204271029E-01, -5.887812229035722E-05,
2491219.500000000, A.D. 2108-Aug-17 00:00:00.0000,  6.560351135788048E-01,  3.060824444177022E-01, -3.353439172542307E-02, -8.616591436181919E-03,  1.824102189543222E-02,  7.513885166338068E-04,  4.185530082923574E-03,  7.247020687547850E-01, -1.307120981241131E-04,
2491249.500000000, A.D. 2108-Sep-16 00:00:00.0000,  2.093246576686546E-01,  6.896876571657805E-01, -2.430845917938662E-03, -1.942170312961766E-02,  5.777080126171235E-03,  1.200032052638412E-03,  4.162749804315601E-03,  7.207577857829907E-01, -1.165129203519399E-04,
2491279.500000000, A.D. 2108-Oct-16 00:00:00.0000, -3.766927232645861E-01,  6.111122851094238E-01,  3.024579435192684E-02, -1.728669543661468E-02, -1.072518703583885E-02,  8.464827892075580E-04,  4.149823222833691E-03,  7.185196175805716E-01, -2.354651516088148E-05,
2491309.500000000, A.D. 2108-Nov-15 00:00:00.0000, -7.081664465263215E-01,  1.199527612289249E-01,  4.248931135229914E-02, -3.484698118949978E-03, -2.003225466196166E-02, -7.897132453168126E-05,  4.155539511820925E-03,  7.195093623375262E-01,  8.542847361268143E-05,
2491339.500000000, A.D. 2108-Dec-15 00:00:00.0000, -5.632722222479959E-01, -4.525917075600198E-01,  2.614144958007640E-02,  1.252665773660615E-02, -1.586216681061906E-02, -9.435085766661341E-04,  4.175976240403566E-03,  7.230478722010305E-01,  1.362318370381449E-04,
2491369.500000000, A.D. 2109-Jan-14 00:00:00.0000, -4.363474583142028E-02, -7.254064844077223E-01, -7.617445929032132E-03,  2.005483152409328E-02, -1.290834840071206E-03, -1.173850291654672E-03,  4.197401741931418E-03,  7.267575827929319E-01,  9.664051649360157E-05,
2491399.500000000, A.D. 2109-Feb-13 00:00:00.0000,  5.053322002825906E-01, -5.230656856978007E-01, -3.642977484425200E-02,  1.441557444006468E-02,  1.397881802447801E-02, -6.355574919668548E-04,  4.205773027650601E-03,  7.282070259837909E-01, -5.538079977500407E-06,
2491429.500000000, A.D. 2109-Mar-15 00:00:00.0000,  7.249962920247843E-01,  2.007168025855401E-02, -4.150316722404990E-02, -6.434379001160427E-04,  2.012601569993074E-02,  3.182018652241967E-04,  4.195686533575330E-03,  7.264606036721574E-01, -1.042500096567917E-04,
2491459.500000000, A.D. 2109-Apr-14 00:00:00.0000,  4.692279067443328E-01,  5.492385931106689E-01, -1.937114306840183E-02, -1.544027378464626E-02,  1.305078461851778E-02,  1.072158621187299E-03,  4.173638678278743E-03,  7.226431358655749E-01, -1.353111900659174E-04,
2491489.500000000, A.D. 2109-May-14 00:00:00.0000, -9.781282269226106E-02,  7.124143697586417E-01,  1.558818631984284E-02, -2.010668269304204E-02, -2.861928564904832E-03,  1.118825879889576E-03,  4.154137964250871E-03,  7.192666918983336E-01, -7.611527131498537E-05,
2491519.500000000, A.D. 2109-Jun-13 00:00:00.0000, -5.983779131007775E-01,  3.959073758880362E-01,  4.001604861690349E-02, -1.124154268733178E-02, -1.696854059986719E-02,  4.108595131671617E-04,  4.150344140000133E-03,  7.186098115920090E-01,  3.501405851075786E-05,
2491549.500000000, A.D. 2109-Jul-13 00:00:00.0000, -6.951471096700207E-01, -1.881013925861391E-01,  3.743554271417419E-02,  5.150380763272468E-03, -1.961507818380763E-02, -5.708175823158079E-04,  4.164837788367158E-03,  7.211193090146273E-01,  1.220080417853708E-04,
2491579.500000000, A.D. 2109-Aug-12 00:00:00.0000, -3.267138104550713E-01, -6.472351378422726E-01,  9.788533642682264E-03,  1.791779059241044E-02, -9.204205573674625E-03, -1.161212122075075E-03,  4.187752843888914E-03,  7.250869278856513E-01,  1.267835019013635E-04,
2491609.500000000, A.D. 2109-Sep-11 00:00:00.0000,  2.579484168815581E-01, -6.802015858199973E-01, -2.436739095735507E-02,  1.877648582102642E-02,  7.103763954871612E-03, -9.829031851236833E-04,  4.203868645587522E-03,  7.278772924510077E-01,  4.853025542859110E-05,
2491639.500000000, A.D. 2109-Oct-11 00:00:00.0000,  6.746769880185008E-01, -2.692800849003376E-01, -4.264444506191850E-02,  7.386766713668535E-03,  1.869799287221490E-02, -1.645318352716881E-04,  4.202733816865896E-03,  7.276808029488537E-01, -6.087727137094910E-05,
